start=new Date('2021-12-02T00:00:00.000Z').valueOf();
sats=[{"ARG_OF_PERICENTER":"90.6510","ECCENTRICITY":"0.00015110","BSTAR":"0.00002503000000","ELEMENT_SET_NO":"999","RA_OF_ASC_NODE":"104.2435","COUNTRY_CODE":"US","TLE_LINE1":"1 44957U 20001AV  21335.91384573  .00000091  00000-0  25030-4 0  9990","SITE":"AFETR","MEAN_MOTION_DDOT":"0.0000000000000","MEAN_ANOMALY":"269.4652","TLE_LINE2":"2 44957  53.0548 104.2435 0001511  90.6510 269.4652 15.06402627105467","EPOCH":"2021-12-01T21:55:56.271072","REF_FRAME":"TEME","MEAN_MOTION_DOT":"0.00000091","APOAPSIS":"548.252","MEAN_ELEMENT_THEORY":"SGP4","OBJECT_TYPE":"PAYLOAD","OBJECT_NAME":"STARLINK-1074","OBJECT_ID":"2020-001AV","PERIAPSIS":"546.159","GP_ID":"190866341","FILE":"3229334","DECAY_DATE":null,"SEMIMAJOR_AXIS":"6925.341","PERIOD":"95.592","REV_AT_EPOCH":"10546","RCS_SIZE":"LARGE","MEAN_MOTION":"15.06402627","NORAD_CAT_ID":"44957","INCLINATION":"53.0548","CLASSIFICATION_TYPE":"U","TIME_SYSTEM":"UTC","LAUNCH_DATE":"2020-01-07","CENTER_NAME":"EARTH","EPHEMERIS_TYPE":"0"},{"MEAN_ANOMALY":"292.8242","MEAN_MOTION_DDOT":"0.0000000000000","REF_FRAME":"TEME","TLE_LINE2":"2 44959  53.0553 104.1804 0002927  67.3056 292.8242 15.06263112105461","EPOCH":"2021-12-01T22:17:14.798400","MEAN_MOTION_DOT":"0.00026578","ARG_OF_PERICENTER":"67.3056","ECCENTRICITY":"0.00029270","BSTAR":"0.00180300000000","RA_OF_ASC_NODE":"104.1804","ELEMENT_SET_NO":"999","SITE":"AFETR","TLE_LINE1":"1 44959U 20001AX  21335.92864350  .00026578  00000-0  18030-2 0  9997","COUNTRY_CODE":"US","MEAN_MOTION":"15.06263112","NORAD_CAT_ID":"44959","INCLINATION":"53.0553","CENTER_NAME":"EARTH","LAUNCH_DATE":"2020-01-07","TIME_SYSTEM":"UTC","CLASSIFICATION_TYPE":"U","EPHEMERIS_TYPE":"0","OBJECT_NAME":"STARLINK-1076","OBJECT_TYPE":"PAYLOAD","MEAN_ELEMENT_THEORY":"SGP4","APOAPSIS":"549.660","OBJECT_ID":"2020-001AX","GP_ID":"190866338","PERIAPSIS":"545.606","RCS_SIZE":"LARGE","REV_AT_EPOCH":"10546","FILE":"3229334","DECAY_DATE":null,"PERIOD":"95.601","SEMIMAJOR_AXIS":"6925.768"},{"SITE":"AFETR","COUNTRY_CODE":"US","TLE_LINE1":"1 44961U 20001AZ  21335.86961033  .00000149  00000-0  28896-4 0  9998","RA_OF_ASC_NODE":"104.4369","ELEMENT_SET_NO":"999","BSTAR":"0.00002889600000","ARG_OF_PERICENTER":"82.7761","ECCENTRICITY":"0.00017240","MEAN_MOTION_DOT":"0.00000149","REF_FRAME":"TEME","EPOCH":"2021-12-01T20:52:14.332512","TLE_LINE2":"2 44961  53.0549 104.4369 0001724  82.7761 277.3424 15.06408728105460","MEAN_ANOMALY":"277.3424","MEAN_MOTION_DDOT":"0.0000000000000","FILE":"3229335","DECAY_DATE":null,"PERIOD":"95.592","SEMIMAJOR_AXIS":"6925.322","RCS_SIZE":"LARGE","REV_AT_EPOCH":"10546","GP_ID":"190866349","PERIAPSIS":"545.993","OBJECT_ID":"2020-001AZ","OBJECT_NAME":"STARLINK-1080","APOAPSIS":"548.381","MEAN_ELEMENT_THEORY":"SGP4","OBJECT_TYPE":"PAYLOAD","EPHEMERIS_TYPE":"0","CENTER_NAME":"EARTH","CLASSIFICATION_TYPE":"U","TIME_SYSTEM":"UTC","LAUNCH_DATE":"2020-01-07","INCLINATION":"53.0549","MEAN_MOTION":"15.06408728","NORAD_CAT_ID":"44961"},{"ECCENTRICITY":"0.00017950","ARG_OF_PERICENTER":"128.7243","BSTAR":"0.00047283000000","RA_OF_ASC_NODE":"101.6016","ELEMENT_SET_NO":"999","SITE":"AFETR","TLE_LINE1":"1 44963U 20001BB  21335.52535513  .00007227  00000-0  47283-3 0  9997","COUNTRY_CODE":"US","MEAN_ANOMALY":"231.3907","MEAN_MOTION_DDOT":"0.0000000000000","REF_FRAME":"TEME","EPOCH":"2021-12-01T12:36:30.683232","TLE_LINE2":"2 44963  52.9990 101.6016 0001795 128.7243 231.3907 15.08750134106181","MEAN_MOTION_DOT":"0.00007227","OBJECT_NAME":"STARLINK-1085","OBJECT_TYPE":"PAYLOAD","APOAPSIS":"541.262","MEAN_ELEMENT_THEORY":"SGP4","OBJECT_ID":"2020-001BB","GP_ID":"190857620","PERIAPSIS":"538.778","RCS_SIZE":"LARGE","REV_AT_EPOCH":"10618","FILE":"3229140","PERIOD":"95.443","DECAY_DATE":null,"SEMIMAJOR_AXIS":"6918.155","MEAN_MOTION":"15.08750134","NORAD_CAT_ID":"44963","INCLINATION":"52.9990","CENTER_NAME":"EARTH","LAUNCH_DATE":"2020-01-07","CLASSIFICATION_TYPE":"U","TIME_SYSTEM":"UTC","EPHEMERIS_TYPE":"0"},{"MEAN_ANOMALY":"266.7607","MEAN_MOTION_DDOT":"0.0000000000000","MEAN_MOTION_DOT":"-0.00000133","REF_FRAME":"TEME","TLE_LINE2":"2 44964  53.0525 105.4963 0001790  93.3586 266.7607 15.06398527105420","EPOCH":"2021-12-01T15:12:32.905152","BSTAR":"0.00000994790000","ARG_OF_PERICENTER":"93.3586","ECCENTRICITY":"0.00017900","SITE":"AFETR","COUNTRY_CODE":"US","TLE_LINE1":"1 44964U 20001BC  21335.63371418 -.00000133  00000-0  99479-5 0  9998","ELEMENT_SET_NO":"999","RA_OF_ASC_NODE":"105.4963","INCLINATION":"53.0525","NORAD_CAT_ID":"44964","MEAN_MOTION":"15.06398527","EPHEMERIS_TYPE":"0","CENTER_NAME":"EARTH","CLASSIFICATION_TYPE":"U","TIME_SYSTEM":"UTC","LAUNCH_DATE":"2020-01-07","OBJECT_ID":"2020-001BC","OBJECT_NAME":"STARLINK-1086","APOAPSIS":"548.458","MEAN_ELEMENT_THEORY":"SGP4","OBJECT_TYPE":"PAYLOAD","FILE":"3229336","DECAY_DATE":null,"PERIOD":"95.592","SEMIMAJOR_AXIS":"6925.353","RCS_SIZE":"LARGE","REV_AT_EPOCH":"10542","GP_ID":"190866543","PERIAPSIS":"545.978"},{"OBJECT_ID":"2020-001BE","OBJECT_TYPE":"PAYLOAD","MEAN_ELEMENT_THEORY":"SGP4","APOAPSIS":"548.157","OBJECT_NAME":"STARLINK-1088","REV_AT_EPOCH":"10542","RCS_SIZE":"LARGE","FILE":"3229336","DECAY_DATE":null,"PERIOD":"95.593","SEMIMAJOR_AXIS":"6925.391","PERIAPSIS":"546.354","GP_ID":"190866545","INCLINATION":"53.0548","NORAD_CAT_ID":"44966","MEAN_MOTION":"15.06386279","EPHEMERIS_TYPE":"0","LAUNCH_DATE":"2020-01-07","TIME_SYSTEM":"UTC","CLASSIFICATION_TYPE":"U","CENTER_NAME":"EARTH","BSTAR":"-0.00004222300000","ARG_OF_PERICENTER":"101.4223","ECCENTRICITY":"0.00013020","TLE_LINE1":"1 44966U 20001BE  21335.65583571 -.00000910  00000-0 -42223-4 0  9995","COUNTRY_CODE":"US","SITE":"AFETR","RA_OF_ASC_NODE":"105.3944","ELEMENT_SET_NO":"999","MEAN_MOTION_DDOT":"0.0000000000000","MEAN_ANOMALY":"258.6912","MEAN_MOTION_DOT":"-0.00000910","EPOCH":"2021-12-01T15:44:24.205344","TLE_LINE2":"2 44966  53.0548 105.3944 0001302 101.4223 258.6912 15.06386279105423","REF_FRAME":"TEME"},{"ECCENTRICITY":"0.00014840","ARG_OF_PERICENTER":"95.1804","BSTAR":"0.00000601640000","RA_OF_ASC_NODE":"105.8971","ELEMENT_SET_NO":"999","COUNTRY_CODE":"US","TLE_LINE1":"1 44967U 20001BF  21335.54525759 -.00000192  00000-0  60164-5 0  9994","SITE":"AFETR","MEAN_MOTION_DDOT":"0.0000000000000","MEAN_ANOMALY":"264.9354","EPOCH":"2021-12-01T13:05:10.255776","TLE_LINE2":"2 44967  53.0552 105.8971 0001484  95.1804 264.9354 15.06400428105411","REF_FRAME":"TEME","MEAN_MOTION_DOT":"-0.00000192","APOAPSIS":"548.240","MEAN_ELEMENT_THEORY":"SGP4","OBJECT_TYPE":"PAYLOAD","OBJECT_NAME":"STARLINK-1089","OBJECT_ID":"2020-001BF","PERIAPSIS":"546.185","GP_ID":"190858872","FILE":"3229140","SEMIMAJOR_AXIS":"6925.347","DECAY_DATE":null,"PERIOD":"95.592","RCS_SIZE":"LARGE","REV_AT_EPOCH":"10541","MEAN_MOTION":"15.06400428","NORAD_CAT_ID":"44967","INCLINATION":"53.0552","TIME_SYSTEM":"UTC","CLASSIFICATION_TYPE":"U","LAUNCH_DATE":"2020-01-07","CENTER_NAME":"EARTH","EPHEMERIS_TYPE":"0"},{"EPHEMERIS_TYPE":"0","CENTER_NAME":"EARTH","TIME_SYSTEM":"UTC","CLASSIFICATION_TYPE":"U","LAUNCH_DATE":"2020-01-07","INCLINATION":"53.0558","MEAN_MOTION":"15.06405155","NORAD_CAT_ID":"44968","DECAY_DATE":null,"FILE":"3229140","SEMIMAJOR_AXIS":"6925.333","PERIOD":"95.592","REV_AT_EPOCH":"10541","RCS_SIZE":"LARGE","GP_ID":"190858120","PERIAPSIS":"546.332","OBJECT_ID":"2020-001BG","OBJECT_NAME":"STARLINK-1090","APOAPSIS":"548.063","MEAN_ELEMENT_THEORY":"SGP4","OBJECT_TYPE":"PAYLOAD","MEAN_MOTION_DOT":"0.00000410","REF_FRAME":"TEME","TLE_LINE2":"2 44968  53.0558 105.9075 0001250  92.9990 267.1142 15.06405155105418","EPOCH":"2021-12-01T12:59:50.997408","MEAN_ANOMALY":"267.1142","MEAN_MOTION_DDOT":"0.0000000000000","SITE":"AFETR","COUNTRY_CODE":"US","TLE_LINE1":"1 44968U 20001BG  21335.54156247  .00000410  00000-0  46433-4 0  9991","RA_OF_ASC_NODE":"105.9075","ELEMENT_SET_NO":"999","BSTAR":"0.00004643300000","ARG_OF_PERICENTER":"92.9990","ECCENTRICITY":"0.00012500"},{"BSTAR":"-0.00011337000000","ECCENTRICITY":"0.00015820","ARG_OF_PERICENTER":"90.3902","SITE":"AFETR","TLE_LINE1":"1 44969U 20001BH  21335.53420494 -.00001970  00000-0 -11337-3 0  9997","COUNTRY_CODE":"US","ELEMENT_SET_NO":"999","RA_OF_ASC_NODE":"105.9391","MEAN_ANOMALY":"269.7268","MEAN_MOTION_DDOT":"0.0000000000000","MEAN_MOTION_DOT":"-0.00001970","REF_FRAME":"TEME","TLE_LINE2":"2 44969  53.0533 105.9391 0001582  90.3902 269.7268 15.06397380105402","EPOCH":"2021-12-01T12:49:15.306816","OBJECT_ID":"2020-001BH","OBJECT_NAME":"STARLINK-1092","OBJECT_TYPE":"PAYLOAD","MEAN_ELEMENT_THEORY":"SGP4","APOAPSIS":"548.317","REV_AT_EPOCH":"10540","RCS_SIZE":"LARGE","FILE":"3229140","PERIOD":"95.592","DECAY_DATE":null,"SEMIMAJOR_AXIS":"6925.357","GP_ID":"190858370","PERIAPSIS":"546.126","INCLINATION":"53.0533","MEAN_MOTION":"15.06397380","NORAD_CAT_ID":"44969","EPHEMERIS_TYPE":"0","CENTER_NAME":"EARTH","LAUNCH_DATE":"2020-01-07","CLASSIFICATION_TYPE":"U","TIME_SYSTEM":"UTC"},{"MEAN_MOTION_DDOT":"0.0000000000000","MEAN_ANOMALY":"264.5310","MEAN_MOTION_DOT":"-0.00000632","TLE_LINE2":"2 44970  53.0554 105.7513 0001680  95.5870 264.5310 15.06391074105406","EPOCH":"2021-12-01T13:52:56.123040","REF_FRAME":"TEME","BSTAR":"-0.00002351300000","ECCENTRICITY":"0.00016800","ARG_OF_PERICENTER":"95.5870","TLE_LINE1":"1 44970U 20001BJ  21335.57842735 -.00000632  00000-0 -23513-4 0  9993","COUNTRY_CODE":"US","SITE":"AFETR","RA_OF_ASC_NODE":"105.7513","ELEMENT_SET_NO":"999","INCLINATION":"53.0554","MEAN_MOTION":"15.06391074","NORAD_CAT_ID":"44970","EPHEMERIS_TYPE":"0","LAUNCH_DATE":"2020-01-07","TIME_SYSTEM":"UTC","CLASSIFICATION_TYPE":"U","CENTER_NAME":"EARTH","OBJECT_ID":"2020-001BJ","OBJECT_TYPE":"PAYLOAD","MEAN_ELEMENT_THEORY":"SGP4","APOAPSIS":"548.404","OBJECT_NAME":"STARLINK-1093","RCS_SIZE":"LARGE","REV_AT_EPOCH":"10540","SEMIMAJOR_AXIS":"6925.376","FILE":"3229140","DECAY_DATE":null,"PERIOD":"95.593","PERIAPSIS":"546.077","GP_ID":"190859121"}];
